{
  "type": "FeatureCollection",
  "features": [
    {
      "type": "Feature",
      "properties": {
        "norad_id": 24946,
        "name": "IRIDIUM 33",
        "group": "iridium-33-debris",
        "lat": -17.1717750324335,
        "lon": -111.12988259872766,
        "alt_km": 774.8548244288559,
        "timestamp": "2025-12-13T20:38:51.391175+00:00",
        "meta_object_name": "IRIDIUM 33",
        "meta_object_id": "1997-051C",
        "meta_epoch": "2025-12-13T08:01:02.847936",
        "meta_mean_motion": 14.35038433,
        "meta_eccentricity": 0.00070947,
        "meta_inclination": 86.3869,
        "meta_ra_of_asc_node": 67.9722,
        "meta_arg_of_pericenter": 198.1556,
        "meta_mean_anomaly": 161.9388,
        "meta_ephemeris_type": 0,
        "meta_classification_type": "U",
        "meta_norad_cat_id": 24946,
        "meta_element_set_no": 999,
        "meta_rev_at_epoch": 47843,
        "meta_bstar": 0.00019114902,
        "meta_mean_motion_dot": 5.64e-06,
        "meta_mean_motion_ddot": 0,
        "tle_line1": "1 24946U 97051C   25347.33406074  .00000564  00000+0  19115-3 0  9999",
        "tle_line2": "2 24946  86.3869  67.9722 0007094 198.1556 161.9388 14.35038433478431"
      },
      "geometry": {
        "type": "Point",
        "coordinates": [
          -111.12988259872766,
          -17.1717750324335
        ]
      }
    },
    {
      "type": "Feature",
      "properties": {
        "norad_id": 33773,
        "name": "IRIDIUM 33 DEB",
        "group": "iridium-33-debris",
        "lat": -7.407391638945401,
        "lon": -119.41648560191322,
        "alt_km": 745.3473184768081,
        "timestamp": "2025-12-13T20:38:51.391224+00:00",
        "meta_object_name": "IRIDIUM 33 DEB",
        "meta_object_id": "1997-051L",
        "meta_epoch": "2025-12-13T06:28:17.713344",
        "meta_mean_motion": 14.43259737,
        "meta_eccentricity": 0.00125049,
        "meta_inclination": 86.4008,
        "meta_ra_of_asc_node": 60.3649,
        "meta_arg_of_pericenter": 144.8452,
        "meta_mean_anomaly": 215.3577,
        "meta_ephemeris_type": 0,
        "meta_classification_type": "U",
        "meta_norad_cat_id": 33773,
        "meta_element_set_no": 999,
        "meta_rev_at_epoch": 88355,
        "meta_bstar": 0.00050662397,
        "meta_mean_motion_dot": 1.726e-05,
        "meta_mean_motion_ddot": 0,
        "tle_line1": "1 33773U 97051L   25347.26964946  .00001726  00000+0  50662-3 0  9999",
        "tle_line2": "2 33773  86.4008  60.3649 0012504 144.8452 215.3577 14.43259737883553"
      },
      "geometry": {
        "type": "Point",
        "coordinates": [
          -119.41648560191322,
          -7.407391638945401
        ]
      }
    },
    {
      "type": "Feature",
      "properties": {
        "norad_id": 33775,
        "name": "IRIDIUM 33 DEB",
        "group": "iridium-33-debris",
        "lat": -82.70159461646841,
        "lon": -101.15432429456015,
        "alt_km": 765.0132010654097,
        "timestamp": "2025-12-13T20:38:51.391241+00:00",
        "meta_object_name": "IRIDIUM 33 DEB",
        "meta_object_id": "1997-051N",
        "meta_epoch": "2025-12-13T06:24:57.153024",
        "meta_mean_motion": 14.41470952,
        "meta_eccentricity": 0.00143442,
        "meta_inclination": 86.3637,
        "meta_ra_of_asc_node": 49.3285,
        "meta_arg_of_pericenter": 152.9768,
        "meta_mean_anomaly": 275.2866,
        "meta_ephemeris_type": 0,
        "meta_classification_type": "U",
        "meta_norad_cat_id": 33775,
        "meta_element_set_no": 999,
        "meta_rev_at_epoch": 88148,
        "meta_bstar": 0.00051001862,
        "meta_mean_motion_dot": 1.676e-05,
        "meta_mean_motion_ddot": 0,
        "tle_line1": "1 33775U 97051N   25347.26732816  .00001676  00000+0  51002-3 0  9993",
        "tle_line2": "2 33775  86.3637  49.3285 0014344 152.9768 275.2866 14.41470952881487"
      },
      "geometry": {
        "type": "Point",
        "coordinates": [
          -101.15432429456015,
          -82.70159461646841
        ]
      }
    },
    {
      "type": "Feature",
      "properties": {
        "norad_id": 33776,
        "name": "IRIDIUM 33 DEB",
        "group": "iridium-33-debris",
        "lat": 59.739075853550226,
        "lon": -105.88275542112996,
        "alt_km": 754.5351122337252,
        "timestamp": "2025-12-13T20:38:51.391255+00:00",
        "meta_object_name": "IRIDIUM 33 DEB",
        "meta_object_id": "1997-051P",
        "meta_epoch": "2025-12-13T06:59:02.487264",
        "meta_mean_motion": 14.38237096,
        "meta_eccentricity": 0.00143999,
        "meta_inclination": 86.4037,
        "meta_ra_of_asc_node": 80.5444,
        "meta_arg_of_pericenter": 188.5448,
        "meta_mean_anomaly": 225.7657,
        "meta_ephemeris_type": 0,
        "meta_classification_type": "U",
        "meta_norad_cat_id": 33776,
        "meta_element_set_no": 999,
        "meta_rev_at_epoch": 88090,
        "meta_bstar": 0.00045884288,
        "meta_mean_motion_dot": 1.415e-05,
        "meta_mean_motion_ddot": 0,
        "tle_line1": "1 33776U 97051P   25347.29100101  .00001415  00000+0  45884-3 0  9995",
        "tle_line2": "2 33776  86.4037  80.5444 0014399 188.5448 225.7657 14.38237096880907"
      },
      "geometry": {
        "type": "Point",
        "coordinates": [
          -105.88275542112996,
          59.739075853550226
        ]
      }
    },
    {
      "type": "Feature",
      "properties": {
        "norad_id": 33777,
        "name": "IRIDIUM 33 DEB",
        "group": "iridium-33-debris",
        "lat": -22.126346967467985,
        "lon": 33.24059150440037,
        "alt_km": 712.9926767977713,
        "timestamp": "2025-12-13T20:38:51.391268+00:00",
        "meta_object_name": "IRIDIUM 33 DEB",
        "meta_object_id": "1997-051Q",
        "meta_epoch": "2025-12-13T04:15:03.139488",
        "meta_mean_motion": 14.55621166,
        "meta_eccentricity": 0.00051914,
        "meta_inclination": 86.3788,
        "meta_ra_of_asc_node": 35.0131,
        "meta_arg_of_pericenter": 246.9353,
        "meta_mean_anomaly": 113.1307,
        "meta_ephemeris_type": 0,
        "meta_classification_type": "U",
        "meta_norad_cat_id": 33777,
        "meta_element_set_no": 999,
        "meta_rev_at_epoch": 88540,
        "meta_bstar": 0.0013129582,
        "meta_mean_motion_dot": 5.75e-05,
        "meta_mean_motion_ddot": 0,
        "tle_line1": "1 33777U 97051Q   25347.17711967  .00005750  00000+0  13130-2 0  9995",
        "tle_line2": "2 33777  86.3788  35.0131 0005191 246.9353 113.1307 14.55621166885408"
      },
      "geometry": {
        "type": "Point",
        "coordinates": [
          33.24059150440037,
          -22.126346967467985
        ]
      }
    },
    {
      "type": "Feature",
      "properties": {
        "norad_id": 33850,
        "name": "IRIDIUM 33 DEB",
        "group": "iridium-33-debris",
        "lat": -67.04407351025758,
        "lon": -141.61446568870468,
        "alt_km": 758.7181222520312,
        "timestamp": "2025-12-13T20:38:51.391281+00:00",
        "meta_object_name": "IRIDIUM 33 DEB",
        "meta_object_id": "1997-051T",
        "meta_epoch": "2025-12-13T03:05:58.527168",
        "meta_mean_motion": 14.42147457,
        "meta_eccentricity": 0.00122848,
        "meta_inclination": 86.3417,
        "meta_ra_of_asc_node": 30.0123,
        "meta_arg_of_pericenter": 159.7826,
        "meta_mean_anomaly": 253.7363,
        "meta_ephemeris_type": 0,
        "meta_classification_type": "U",
        "meta_norad_cat_id": 33850,
        "meta_element_set_no": 999,
        "meta_rev_at_epoch": 88158,
        "meta_bstar": 0.00044273962,
        "meta_mean_motion_dot": 1.477e-05,
        "meta_mean_motion_ddot": 0,
        "tle_line1": "1 33850U 97051T   25347.12914962  .00001477  00000+0  44274-3 0  9998",
        "tle_line2": "2 33850  86.3417  30.0123 0012284 159.7826 253.7363 14.42147457881582"
      },
      "geometry": {
        "type": "Point",
        "coordinates": [
          -141.61446568870468,
          -67.04407351025758
        ]
      }
    },
    {
      "type": "Feature",
      "properties": {
        "norad_id": 33853,
        "name": "IRIDIUM 33 DEB",
        "group": "iridium-33-debris",
        "lat": 83.56922691016995,
        "lon": 130.94538791895195,
        "alt_km": 998.8658731210999,
        "timestamp": "2025-12-13T20:38:51.391293+00:00",
        "meta_object_name": "IRIDIUM 33 DEB",
        "meta_object_id": "1997-051W",
        "meta_epoch": "2025-12-13T06:29:57.095808",
        "meta_mean_motion": 13.99068343,
        "meta_eccentricity": 0.02069862,
        "meta_inclination": 85.9999,
        "meta_ra_of_asc_node": 349.5788,
        "meta_arg_of_pericenter": 234.1677,
        "meta_mean_anomaly": 135.0988,
        "meta_ephemeris_type": 0,
        "meta_classification_type": "U",
        "meta_norad_cat_id": 33853,
        "meta_element_set_no": 999,
        "meta_rev_at_epoch": 85353,
        "meta_bstar": 0.0028834559,
        "meta_mean_motion_dot": 5.028e-05,
        "meta_mean_motion_ddot": 0,
        "tle_line1": "1 33853U 97051W   25347.27079972  .00005028  00000+0  28835-2 0  9990",
        "tle_line2": "2 33853  85.9999 349.5788 0206986 234.1677 135.0988 13.99068343853532"
      },
      "geometry": {
        "type": "Point",
        "coordinates": [
          130.94538791895195,
          83.56922691016995
        ]
      }
    }
  ]
}